TRANSPORTER-16 OBJECT Y 
1 68438U 26067Y   26110.86093676  .00013669  00000+0  67214-3 0  9992
2 68438  97.4493  70.1768 0001461 197.2577 162.8607 15.18141060  3242
TRANSPORTER-16 OBJECT Z 
1 68439U 26067Z   26110.86345685  .00011865  00000+0  58775-3 0  9991
2 68439  97.4488  70.1724 0000508 198.4117 161.7099 15.17917806  3244
TRANSPORTER-16 OBJECT AA
1 68440U 26067AA  26110.86257352  .00016221  00000+0  79861-3 0  9996
2 68440  97.4487  70.1730 0000625 194.6185 165.5031 15.18058112  3240
TRANSPORTER-16 OBJECT AB
1 68441U 26067AB  26110.86603266  .00003003  00000+0  15200-3 0  9997
2 68441  97.4456  70.1575 0000794 290.8422  69.2727 15.17769065  3241
TRANSPORTER-16 OBJECT AC
1 68442U 26067AC  26110.80593169  .00004371  00000+0  22364-3 0  9990
2 68442  97.4506  70.1021 0002470 268.0716  92.0235 15.17151470  3232
TRANSPORTER-16 OBJECT AD
1 68443U 26067AD  26110.67485029  .00003831  00000+0  19681-3 0  9999
2 68443  97.4514  69.9737 0002685 273.5042  86.5885 15.17080112  3214
TRANSPORTER-16 OBJECT AE
1 68444U 26067AE  26110.85733610  .00004676  00000+0  23200-3 0  9992
2 68444  97.4539  70.1948 0002411 132.5413 227.6025 15.18194227  3244
TRANSPORTER-16 OBJECT AF
1 68445U 26067AF  26110.80882603  .00003301  00000+0  17082-3 0  9990
2 68445  97.4484  70.0923 0003199 282.3867  77.7009 15.16920525  3238
HADES-SA (SPINNYONE)    
1 68446U 26067AG  26110.61168190  .00014842  00000+0  75107-3 0  9992
2 68446  97.4383  69.8724 0004563 279.0628  81.0089 15.17108811  3194
TRANSPORTER-16 OBJECT AH
1 68447U 26067AH  26110.85882885  .00006192  00000+0  30679-3 0  9997
2 68447  97.4490  70.1798 0001765 126.1538 233.9860 15.18116174  3246
TRANSPORTER-16 OBJECT AJ
1 68448U 26067AJ  26110.53696293  .00002652  00000+0  13452-3 0  9996
2 68448  97.4571  69.8511 0001332 289.2040  70.9049 15.17797073  3198
TRANSPORTER-16 OBJECT AK
1 68449U 26067AK  26110.80450489  .00005775  00000+0  29323-3 0  9995
2 68449  97.4482  70.0973 0001895 279.8378  80.2641 15.17284339  3232
TRANSPORTER-16 OBJECT AL
1 68450U 26067AL  26110.86032467  .00005896  00000+0  29317-3 0  9992
2 68450  97.4517  70.1857 0001626 149.3202 210.8127 15.18008070  3242
TRANSPORTER-16 OBJECT AM
1 68451U 26067AM  26110.85947804  .00005973  00000+0  29645-3 0  9992
2 68451  97.4476  70.1745 0001574 126.2927 233.8453 15.18069751  3243
TRANSPORTER-16 OBJECT AN
1 68452U 26067AN  26110.86969661  .00005690  00000+0  28851-3 0  9993
2 68452  97.4518  70.1737 0001870 262.7925  97.3096 15.17338040  3240
TRANSPORTER-16 OBJECT AP
1 68453U 26067AP  26110.86060472  .00005836  00000+0  29040-3 0  9999
2 68453  97.4520  70.1865 0001669 158.5315 201.5989 15.17987550  3243
