[{"OBJECT_NAME":"TRANSPORTER-16 OBJECT Y","OBJECT_ID":"2026-067Y","EPOCH":"2026-04-20T20:39:44.936064","MEAN_MOTION":15.1814106,"ECCENTRICITY":0.00014612,"INCLINATION":97.4493,"RA_OF_ASC_NODE":70.1768,"ARG_OF_PERICENTER":197.2577,"MEAN_ANOMALY":162.8607,"EPHEMERIS_TYPE":0,"CLASSIFICATION_TYPE":"U","NORAD_CAT_ID":68438,"ELEMENT_SET_NO":999,"REV_AT_EPOCH":324,"BSTAR":0.00067213632,"MEAN_MOTION_DOT":0.00013669,"MEAN_MOTION_DDOT":0},{"OBJECT_NAME":"TRANSPORTER-16 OBJECT Z","OBJECT_ID":"2026-067Z","EPOCH":"2026-04-20T20:43:22.671840","MEAN_MOTION":15.17917806,"ECCENTRICITY":5.086e-5,"INCLINATION":97.4488,"RA_OF_ASC_NODE":70.1724,"ARG_OF_PERICENTER":198.4117,"MEAN_ANOMALY":161.7099,"EPHEMERIS_TYPE":0,"CLASSIFICATION_TYPE":"U","NORAD_CAT_ID":68439,"ELEMENT_SET_NO":999,"REV_AT_EPOCH":324,"BSTAR":0.00058774758,"MEAN_MOTION_DOT":0.00011865,"MEAN_MOTION_DDOT":0},{"OBJECT_NAME":"TRANSPORTER-16 OBJECT AA","OBJECT_ID":"2026-067AA","EPOCH":"2026-04-20T20:42:06.352128","MEAN_MOTION":15.18058112,"ECCENTRICITY":6.251e-5,"INCLINATION":97.4487,"RA_OF_ASC_NODE":70.173,"ARG_OF_PERICENTER":194.6185,"MEAN_ANOMALY":165.5031,"EPHEMERIS_TYPE":0,"CLASSIFICATION_TYPE":"U","NORAD_CAT_ID":68440,"ELEMENT_SET_NO":999,"REV_AT_EPOCH":324,"BSTAR":0.00079860875,"MEAN_MOTION_DOT":0.00016221,"MEAN_MOTION_DDOT":0},{"OBJECT_NAME":"TRANSPORTER-16 OBJECT AB","OBJECT_ID":"2026-067AB","EPOCH":"2026-04-20T20:47:05.221824","MEAN_MOTION":15.17769065,"ECCENTRICITY":7.941e-5,"INCLINATION":97.4456,"RA_OF_ASC_NODE":70.1575,"ARG_OF_PERICENTER":290.8422,"MEAN_ANOMALY":69.2727,"EPHEMERIS_TYPE":0,"CLASSIFICATION_TYPE":"U","NORAD_CAT_ID":68441,"ELEMENT_SET_NO":999,"REV_AT_EPOCH":324,"BSTAR":0.00015199682,"MEAN_MOTION_DOT":3.003e-5,"MEAN_MOTION_DDOT":0},{"OBJECT_NAME":"TRANSPORTER-16 OBJECT AC","OBJECT_ID":"2026-067AC","EPOCH":"2026-04-20T19:20:32.498016","MEAN_MOTION":15.1715147,"ECCENTRICITY":0.00024702,"INCLINATION":97.4506,"RA_OF_ASC_NODE":70.1021,"ARG_OF_PERICENTER":268.0716,"MEAN_ANOMALY":92.0235,"EPHEMERIS_TYPE":0,"CLASSIFICATION_TYPE":"U","NORAD_CAT_ID":68442,"ELEMENT_SET_NO":999,"REV_AT_EPOCH":323,"BSTAR":0.00022363632,"MEAN_MOTION_DOT":4.371e-5,"MEAN_MOTION_DDOT":0},{"OBJECT_NAME":"TRANSPORTER-16 OBJECT AD","OBJECT_ID":"2026-067AD","EPOCH":"2026-04-20T16:11:47.065056","MEAN_MOTION":15.17080112,"ECCENTRICITY":0.0002685,"INCLINATION":97.4514,"RA_OF_ASC_NODE":69.9737,"ARG_OF_PERICENTER":273.5042,"MEAN_ANOMALY":86.5885,"EPHEMERIS_TYPE":0,"CLASSIFICATION_TYPE":"U","NORAD_CAT_ID":68443,"ELEMENT_SET_NO":999,"REV_AT_EPOCH":321,"BSTAR":0.00019680796,"MEAN_MOTION_DOT":3.831e-5,"MEAN_MOTION_DDOT":0},{"OBJECT_NAME":"TRANSPORTER-16 OBJECT AE","OBJECT_ID":"2026-067AE","EPOCH":"2026-04-20T20:34:33.839040","MEAN_MOTION":15.18194227,"ECCENTRICITY":0.00024112,"INCLINATION":97.4539,"RA_OF_ASC_NODE":70.1948,"ARG_OF_PERICENTER":132.5413,"MEAN_ANOMALY":227.6025,"EPHEMERIS_TYPE":0,"CLASSIFICATION_TYPE":"U","NORAD_CAT_ID":68444,"ELEMENT_SET_NO":999,"REV_AT_EPOCH":324,"BSTAR":0.0002320038,"MEAN_MOTION_DOT":4.676e-5,"MEAN_MOTION_DDOT":0},{"OBJECT_NAME":"TRANSPORTER-16 OBJECT AF","OBJECT_ID":"2026-067AF","EPOCH":"2026-04-20T19:24:42.568992","MEAN_MOTION":15.16920525,"ECCENTRICITY":0.00031996,"INCLINATION":97.4484,"RA_OF_ASC_NODE":70.0923,"ARG_OF_PERICENTER":282.3867,"MEAN_ANOMALY":77.7009,"EPHEMERIS_TYPE":0,"CLASSIFICATION_TYPE":"U","NORAD_CAT_ID":68445,"ELEMENT_SET_NO":999,"REV_AT_EPOCH":323,"BSTAR":0.00017081506,"MEAN_MOTION_DOT":3.301e-5,"MEAN_MOTION_DDOT":0},{"OBJECT_NAME":"HADES-SA (SPINNYONE)","OBJECT_ID":"2026-067AG","EPOCH":"2026-04-20T14:40:49.316160","MEAN_MOTION":15.17108811,"ECCENTRICITY":0.00045636,"INCLINATION":97.4383,"RA_OF_ASC_NODE":69.8724,"ARG_OF_PERICENTER":279.0628,"MEAN_ANOMALY":81.0089,"EPHEMERIS_TYPE":0,"CLASSIFICATION_TYPE":"U","NORAD_CAT_ID":68446,"ELEMENT_SET_NO":999,"REV_AT_EPOCH":319,"BSTAR":0.00075107192,"MEAN_MOTION_DOT":0.00014842,"MEAN_MOTION_DDOT":0},{"OBJECT_NAME":"TRANSPORTER-16 OBJECT AH","OBJECT_ID":"2026-067AH","EPOCH":"2026-04-20T20:36:42.812640","MEAN_MOTION":15.18116174,"ECCENTRICITY":0.00017654,"INCLINATION":97.449,"RA_OF_ASC_NODE":70.1798,"ARG_OF_PERICENTER":126.1538,"MEAN_ANOMALY":233.986,"EPHEMERIS_TYPE":0,"CLASSIFICATION_TYPE":"U","NORAD_CAT_ID":68447,"ELEMENT_SET_NO":999,"REV_AT_EPOCH":324,"BSTAR":0.00030678694,"MEAN_MOTION_DOT":6.192e-5,"MEAN_MOTION_DDOT":0},{"OBJECT_NAME":"TRANSPORTER-16 OBJECT AJ","OBJECT_ID":"2026-067AJ","EPOCH":"2026-04-20T12:53:13.597152","MEAN_MOTION":15.17797073,"ECCENTRICITY":0.00013328,"INCLINATION":97.4571,"RA_OF_ASC_NODE":69.8511,"ARG_OF_PERICENTER":289.204,"MEAN_ANOMALY":70.9049,"EPHEMERIS_TYPE":0,"CLASSIFICATION_TYPE":"U","NORAD_CAT_ID":68448,"ELEMENT_SET_NO":999,"REV_AT_EPOCH":319,"BSTAR":0.00013451513,"MEAN_MOTION_DOT":2.652e-5,"MEAN_MOTION_DDOT":0},{"OBJECT_NAME":"TRANSPORTER-16 OBJECT AK","OBJECT_ID":"2026-067AK","EPOCH":"2026-04-20T19:18:29.222496","MEAN_MOTION":15.17284339,"ECCENTRICITY":0.00018951,"INCLINATION":97.4482,"RA_OF_ASC_NODE":70.0973,"ARG_OF_PERICENTER":279.8378,"MEAN_ANOMALY":80.2641,"EPHEMERIS_TYPE":0,"CLASSIFICATION_TYPE":"U","NORAD_CAT_ID":68449,"ELEMENT_SET_NO":999,"REV_AT_EPOCH":323,"BSTAR":0.00029322627,"MEAN_MOTION_DOT":5.775e-5,"MEAN_MOTION_DDOT":0},{"OBJECT_NAME":"TRANSPORTER-16 OBJECT AL","OBJECT_ID":"2026-067AL","EPOCH":"2026-04-20T20:38:52.051488","MEAN_MOTION":15.1800807,"ECCENTRICITY":0.00016269,"INCLINATION":97.4517,"RA_OF_ASC_NODE":70.1857,"ARG_OF_PERICENTER":149.3202,"MEAN_ANOMALY":210.8127,"EPHEMERIS_TYPE":0,"CLASSIFICATION_TYPE":"U","NORAD_CAT_ID":68450,"ELEMENT_SET_NO":999,"REV_AT_EPOCH":324,"BSTAR":0.00029316948,"MEAN_MOTION_DOT":5.896e-5,"MEAN_MOTION_DDOT":0},{"OBJECT_NAME":"TRANSPORTER-16 OBJECT AM","OBJECT_ID":"2026-067AM","EPOCH":"2026-04-20T20:37:38.902656","MEAN_MOTION":15.18069751,"ECCENTRICITY":0.00015744,"INCLINATION":97.4476,"RA_OF_ASC_NODE":70.1745,"ARG_OF_PERICENTER":126.2927,"MEAN_ANOMALY":233.8453,"EPHEMERIS_TYPE":0,"CLASSIFICATION_TYPE":"U","NORAD_CAT_ID":68451,"ELEMENT_SET_NO":999,"REV_AT_EPOCH":324,"BSTAR":0.00029645242,"MEAN_MOTION_DOT":5.973e-5,"MEAN_MOTION_DDOT":0},{"OBJECT_NAME":"TRANSPORTER-16 OBJECT AN","OBJECT_ID":"2026-067AN","EPOCH":"2026-04-20T20:52:21.787104","MEAN_MOTION":15.1733804,"ECCENTRICITY":0.00018703,"INCLINATION":97.4518,"RA_OF_ASC_NODE":70.1737,"ARG_OF_PERICENTER":262.7925,"MEAN_ANOMALY":97.3096,"EPHEMERIS_TYPE":0,"CLASSIFICATION_TYPE":"U","NORAD_CAT_ID":68452,"ELEMENT_SET_NO":999,"REV_AT_EPOCH":324,"BSTAR":0.00028850627,"MEAN_MOTION_DOT":5.69e-5,"MEAN_MOTION_DDOT":0},{"OBJECT_NAME":"TRANSPORTER-16 OBJECT AP","OBJECT_ID":"2026-067AP","EPOCH":"2026-04-20T20:39:16.247808","MEAN_MOTION":15.1798755,"ECCENTRICITY":0.00016697,"INCLINATION":97.452,"RA_OF_ASC_NODE":70.1865,"ARG_OF_PERICENTER":158.5315,"MEAN_ANOMALY":201.5989,"EPHEMERIS_TYPE":0,"CLASSIFICATION_TYPE":"U","NORAD_CAT_ID":68453,"ELEMENT_SET_NO":999,"REV_AT_EPOCH":324,"BSTAR":0.00029039613,"MEAN_MOTION_DOT":5.836e-5,"MEAN_MOTION_DDOT":0}]
